sat04613
1 04613U 70025R   20046.84028562 -.00000040  00000-0  22910-5 0  9999
2 04613  98.8017  92.8796 0103757 341.8845  17.8644 14.16401507533398
